HULIANWANG DIGUI-148    
1 67524U 26013C   26037.49848552  .00000045  00000+0  16372-3 0  9999
2 67524  50.0060 112.2692 0001035  28.5692 331.5262 13.86045850  2544
HULIANWANG DIGUI-149    
1 67525U 26013D   26038.36173686  .00000019  00000+0  14342-3 0  9992
2 67525  50.0093 108.8357 0000686  34.5919 325.5022 13.85279637  2661
HULIANWANG DIGUI-150    
1 67526U 26013E   26037.70708411  .00000031  00000+0  15093-3 0  9998
2 67526  50.0014 111.3671 0000358 322.4069  37.6803 13.86273245  2594
HULIANWANG DIGUI-151    
1 67527U 26013F   26038.93399745  .00000037  00000+0  15345-3 0  9997
2 67527  50.0094 106.5369 0000269  98.1735 261.9193 13.87467532  2747
HULIANWANG DIGUI-152    
1 67528U 26013G   26037.85000518  .00000045  00000+0  16244-3 0  9993
2 67528  49.9909 110.8762 0011338   5.9340 354.1690 13.86415145  2594
HULIANWANG DIGUI-153    
1 67529U 26013H   26038.49404900 -.00000103  00000+0  35564-4 0  9991
2 67529  50.0020 108.1828 0000525 103.0811 257.0145 13.86090346  2671
HULIANWANG DIGUI-154    
1 67530U 26013J   26038.34760553  .00000115  00000+0  22216-3 0  9997
2 67530  50.0072 108.7538 0000474 165.1685 194.9226 13.86545192  2656
CZ-12 R/B               
1 67531U 26013K   26038.51571581  .00000166  00000+0  16270-3 0  9997
2 67531  49.9922 105.6299 0068691 194.0204 165.8798 14.14457818  2718
STARLINK-36587          
1 67532U 26014A   26038.86102323  .00319964  00000+0  16005-2 0  9995
2 67532  97.2832 282.2602 0001754  87.5519 272.5950 15.80954547  3876
STARLINK-36417          
1 67533U 26014B   26038.91667824 -.00034290  00000+0 -23006-3 0  9992
2 67533  97.2838 282.2995 0001659  78.9568 193.6642 15.75177452  3901
STARLINK-36576          
1 67534U 26014C   26038.73303245  .00276142  00000+0  13903-2 0  9993
2 67534  97.2835 282.1278 0000810  61.5021 298.6329 15.80925519  3855
STARLINK-36574          
1 67535U 26014D   26038.85835492  .00188452  00000+0  95989-3 0  9992
2 67535  97.2837 282.2633 0001965 106.1688 253.9797 15.80897382  3872
